[{"OBJECT_NAME":"KUIPER-00025","OBJECT_ID":"2025-088R","EPOCH":"2026-03-09T06:58:33.870720","MEAN_MOTION":14.83523412,"ECCENTRICITY":4.92e-5,"INCLINATION":51.9016,"RA_OF_ASC_NODE":103.1273,"ARG_OF_PERICENTER":19.3968,"MEAN_ANOMALY":340.7015,"EPHEMERIS_TYPE":0,"CLASSIFICATION_TYPE":"U","NORAD_CAT_ID":63739,"ELEMENT_SET_NO":999,"REV_AT_EPOCH":4774,"BSTAR":0.00061010528,"MEAN_MOTION_DOT":4.845e-5,"MEAN_MOTION_DDOT":0},{"OBJECT_NAME":"MAGION 2","OBJECT_ID":"1989-080B","EPOCH":"2026-03-09T12:12:11.295648","MEAN_MOTION":12.6287073,"ECCENTRICITY":0.11724729,"INCLINATION":82.5971,"RA_OF_ASC_NODE":77.6425,"ARG_OF_PERICENTER":188.581,"MEAN_ANOMALY":169.3566,"EPHEMERIS_TYPE":0,"CLASSIFICATION_TYPE":"U","NORAD_CAT_ID":20281,"ELEMENT_SET_NO":999,"REV_AT_EPOCH":66949,"BSTAR":0.0001812215,"MEAN_MOTION_DOT":6.35e-6,"MEAN_MOTION_DDOT":0}]
